NORAD_CAT_ID,OBJECT_NAME,OBJECT_TYPE,EPOCH,MEAN_MOTION,ECCENTRICITY,INCLINATION,RA_OF_ASC_NODE,ARG_OF_PERICENTER,MEAN_ANOMALY,BSTAR,MEAN_MOTION_DOT,MEAN_MOTION_DDOT,TLE_LINE0,TLE_LINE1,TLE_LINE2,SEMIMAJOR_AXIS,PERIOD,APOGEE,PERIGEE,DECAYED
52105.0,STARLINK-3706,PAYLOAD,2023-01-11 06:12:46,15.08830834,0.0002251,53.2185,217.0681,26.5075,333.6032,1.9811e-05,2.7e-07,0.0,0 STARLINK-3706,1 52105U 22029T   23011.25887470  .00000027  00000-0  19811-4 0  9999,2 52105  53.2185 217.0681 0002251  26.5075 333.6032 15.08830834 46650,6917.908,95.438,541.331,538.216,0.0
52105.0,STARLINK-3706,PAYLOAD,2023-01-11 15:45:04,15.08860641,0.0002188,53.2176,215.2842,18.5617,341.5454,-0.00083133,-0.00013502,0.0,0 STARLINK-3706,1 52105U 22029T   23011.65630134 -.00013502  00000-0 -83133-3 0  9997,2 52105  53.2176 215.2842 0002188  18.5617 341.5454 15.08860641 46713,6917.816999999999,95.436,541.196,538.169,0.0
52105.0,STARLINK-3706,PAYLOAD,2023-01-11 20:31:15,15.08835154,0.0002643,53.2163,214.3934,27.3147,332.7983,-1.0433e-05,-4.55e-06,0.0,0 STARLINK-3706,1 52105U 22029T   23011.85503697 -.00000455  00000-0 -10433-4 0  9999,2 52105  53.2163 214.3934 0002643  27.3147 332.7983 15.08835154 46746,6917.895,95.438,541.589,537.932,0.0
52105.0,STARLINK-3706,PAYLOAD,2023-01-12 06:03:34,15.08838191,0.0002698,53.2157,212.6092,32.095,328.0206,0.00021643,3.158e-05,0.0,0 STARLINK-3706,1 52105U 22029T   23012.25247755  .00003158  00000-0  21643-3 0  9999,2 52105  53.2157 212.6092 0002698  32.0950 328.0206 15.08838191 46807,6917.886,95.438,541.617,537.884,0.0
52105.0,STARLINK-3706,PAYLOAD,2023-01-12 21:57:25,15.08850367,0.0002704,53.2152,209.6356,34.7912,325.3256,0.00044607,6.82e-05,0.0,0 STARLINK-3706,1 52105U 22029T   23012.91487523  .00006820  00000-0  44607-3 0  9995,2 52105  53.2152 209.6356 0002704  34.7912 325.3256 15.08850367 46901,6917.849,95.437,541.5840000000002,537.8430000000002,0.0
52105.0,STARLINK-3706,PAYLOAD,2023-01-13 12:15:53,15.08834719,0.0002721,53.2146,206.9592,39.044,321.0748,6.258e-05,7.07e-06,0.0,0 STARLINK-3706,1 52105U 22029T   23013.51104147  .00000707  00000-0  62580-4 0  9999,2 52105  53.2146 206.9592 0002721  39.0440 321.0748 15.08834719 46990,6917.897,95.438,541.644,537.879,0.0
52105.0,STARLINK-3706,PAYLOAD,2023-01-13 21:48:12,15.088376,0.0002703,53.215,205.1751,38.6866,321.4319,4.4053e-05,4.13e-06,0.0,0 STARLINK-3706,1 52105U 22029T   23013.90848133  .00000413  00000-0  44053-4 0  9991,2 52105  53.2150 205.1751 0002703  38.6866 321.4319 15.08837600 47058,6917.888000000001,95.438,541.623,537.883,0.0
52105.0,STARLINK-3706,PAYLOAD,2023-01-14 21:38:59,15.08848997,0.0002691,53.2156,200.7144,41.6417,318.478,6.1893e-05,6.97e-06,0.0,0 STARLINK-3706,1 52105U 22029T   23014.90207581  .00000697  00000-0  61893-4 0  9993,2 52105  53.2156 200.7144 0002691  41.6417 318.4780 15.08848997 47209,6917.853,95.437,541.5790000000001,537.856,0.0
52105.0,STARLINK-3706,PAYLOAD,2023-01-15 11:57:28,15.08836028,0.0002676,53.2159,198.0385,41.3312,318.7882,0.00011181,1.491e-05,0.0,0 STARLINK-3706,1 52105U 22029T   23015.49824325  .00001491  00000-0  11181-3 0  9996,2 52105  53.2159 198.0385 0002676  41.3312 318.7882 15.08836028 47299,6917.893,95.438,541.609,537.906,0.0
52105.0,STARLINK-3706,PAYLOAD,2023-01-15 18:19:00,15.08839147,0.0002595,53.2165,196.8494,40.0176,320.1007,0.00013956,1.933e-05,0.0,0 STARLINK-3706,1 52105U 22029T   23015.76320128  .00001933  00000-0  13956-3 0  9991,2 52105  53.2165 196.8494 0002595  40.0176 320.1007 15.08839147 47333,6917.883000000001,95.438,541.543,537.953,0.0
52105.0,STARLINK-3706,PAYLOAD,2023-01-16 11:48:15,15.08839632,0.0002701,53.2155,193.5784,44.772,315.3489,4.1011e-05,3.64e-06,0.0,0 STARLINK-3706,1 52105U 22029T   23016.49184336  .00000364  00000-0  41011-4 0  9992,2 52105  53.2155 193.5784 0002701  44.7720 315.3489 15.08839632 47444,6917.882,95.438,541.615,537.878,0.0
52105.0,STARLINK-3706,PAYLOAD,2023-01-16 21:20:33,15.08844277,0.0002675,53.2164,191.7938,48.2375,311.8846,6.5832e-05,7.6e-06,0.0,0 STARLINK-3706,1 52105U 22029T   23016.88928009  .00000760  00000-0  65832-4 0  9995,2 52105  53.2164 191.7938 0002675  48.2375 311.8846 15.08844277 47506,6917.866999999999,95.437,541.5830000000001,537.882,0.0
52105.0,STARLINK-3706,PAYLOAD,2023-01-17 11:39:02,15.08835725,0.0002681,53.2164,189.1175,49.3196,310.8029,7.0406e-05,8.32e-06,0.0,0 STARLINK-3706,1 52105U 22029T   23017.48544584  .00000832  00000-0  70406-4 0  9997,2 52105  53.2164 189.1175 0002681  49.3196 310.8029 15.08835725 47599,6917.893,95.438,541.613,537.904,0.0
52105.0,STARLINK-3706,PAYLOAD,2023-01-17 18:00:34,15.088401500000002,0.0002626,53.2167,187.928,49.6654,310.4568,9.3504e-05,1.2e-05,0.0,0 STARLINK-3706,1 52105U 22029T   23017.75040292  .00001200  00000-0  93504-4 0  9998,2 52105  53.2167 187.9280 0002626  49.6654 310.4568 15.08840150 47633,6917.88,95.438,541.562,537.928,0.0
52105.0,STARLINK-3706,PAYLOAD,2023-01-18 09:54:26,15.08838335,0.0002528,53.2166,184.9549,48.1792,311.9415,8.252200000000001e-05,1.025e-05,0.0,0 STARLINK-3706,1 52105U 22029T   23018.41280585  .00001025  00000-0  82522-4 0  9996,2 52105  53.2166 184.9549 0002528  48.1792 311.9415 15.08838335 47735,6917.885,95.438,541.499,538.002,0.0
52105.0,STARLINK-3706,PAYLOAD,2023-01-18 14:40:35,15.08840727,0.0002593,53.2156,184.0625,49.2281,310.8936,9.488e-05,1.222e-05,0.0,0 STARLINK-3706,1 52105U 22029T   23018.61152416  .00001222  00000-0  94880-4 0  9998,2 52105  53.2156 184.0625 0002593  49.2281 310.8936 15.08840727 47764,6917.878000000001,95.438,541.5369999999999,537.9490000000001,0.0
52105.0,STARLINK-3706,PAYLOAD,2023-01-19 09:45:13,15.08835583,0.0002694,53.2153,180.4953,57.3548,302.7703,7.572e-05,9.17e-06,0.0,0 STARLINK-3706,1 52105U 22029T   23019.40640954  .00000917  00000-0  75720-4 0  9997,2 52105  53.2153 180.4953 0002694  57.3548 302.7703 15.08835583 47882,6917.894,95.438,541.623,537.895,0.0
52105.0,STARLINK-3706,PAYLOAD,2023-01-19 12:56:00,15.08834404,0.0002525,53.216,179.9017,47.1907,312.9297,5.1818e-07,-2.8e-06,0.0,0 STARLINK-3706,1 52105U 22029T   23019.53889280 -.00000280  00000-0  51818-6 0  9996,2 52105  53.2160 179.9017 0002525  47.1907 312.9297 15.08834404 47908,6917.897,95.438,541.509,538.016,0.0
52105.0,STARLINK-3706,PAYLOAD,2023-01-20 03:14:28,15.08836883,0.0002359,53.2163,177.2245,54.1471,305.974,5.8239e-05,6.39e-06,0.0,0 STARLINK-3706,1 52105U 22029T   23020.13505017  .00000639  00000-0  58239-4 0  9996,2 52105  53.2163 177.2245 0002359  54.1471 305.9740 15.08836883 47991,6917.89,95.438,541.387,538.123,0.0
52105.0,STARLINK-3706,PAYLOAD,2023-01-20 15:57:33,15.0883468,0.0002319,53.2162,174.8461,57.5152,302.6064,6.1538e-05,6.91e-06,0.0,0 STARLINK-3706,1 52105U 22029T   23020.66497350  .00000691  00000-0  61538-4 0  9998,2 52105  53.2162 174.8461 0002319  57.5152 302.6064 15.08834680 48078,6917.897,95.438,541.366,538.1569999999999,0.0
52105.0,STARLINK-3706,PAYLOAD,2023-01-21 03:05:14,15.08866768,0.0002207,53.2163,172.7644,62.0914,298.0301,-0.00029155,-4.929e-05,0.0,0 STARLINK-3706,1 52105U 22029T   23021.12863882 -.00004929  00000-0 -29155-3 0  9995,2 52105  53.2163 172.7644 0002207  62.0914 298.0301 15.08866768 48144,6917.799,95.436,541.19,538.137,0.0
52105.0,STARLINK-3706,PAYLOAD,2023-01-21 11:02:11,15.08832744,0.0002369,53.2167,171.2766,61.0769,299.046,0.00020995,3.054e-05,0.0,0 STARLINK-3706,1 52105U 22029T   23021.45985351  .00003054  00000-0  20995-3 0  9996,2 52105  53.2167 171.2766 0002369  61.0769 299.0460 15.08832744 48192,6917.903,95.438,541.406,538.129,0.0
52105.0,STARLINK-3706,PAYLOAD,2023-01-21 15:48:20,15.08847282,0.0002323999999999,53.2171,170.3841,59.9204,300.2018,0.00016646,2.362e-05,0.0,0 STARLINK-3706,1 52105U 22029T   23021.65856556  .00002362  00000-0  16646-3 0  9991,2 52105  53.2171 170.3841 0002324  59.9204 300.2018 15.08847282 48223,6917.858,95.437,541.331,538.115,0.0
52105.0,STARLINK-3706,PAYLOAD,2023-01-22 09:17:34,15.08839101,0.0002131999999999,53.2174,167.1156,64.4698,295.6514,0.00012658,1.727e-05,0.0,0 STARLINK-3706,1 52105U 22029T   23022.38720963  .00001727  00000-0  12658-3 0  9997,2 52105  53.2174 167.1156 0002132  64.4698 295.6514 15.08839101 48335,6917.883000000001,95.438,541.2230000000001,538.273,0.0
52105.0,STARLINK-3706,PAYLOAD,2023-01-23 12:19:08,15.0883961,0.0002478,53.216,162.0575,72.3474,287.7789,1.9946e-05,2.9e-07,0.0,0 STARLINK-3706,1 52105U 22029T   23023.51329203  .00000029  00000-0  19946-4 0  9997,2 52105  53.2160 162.0575 0002478  72.3474 287.7789 15.08839610 48502,6917.882,95.438,541.461,538.0319999999999,0.0
52105.0,STARLINK-3706,PAYLOAD,2023-01-24 13:45:20,15.08813184,0.0002032999999999,53.2154,157.30100000000002,70.7932,289.328,-0.00014281,-2.559e-05,0.0,0 STARLINK-3706,1 52105U 22029T   23024.57315702 -.00002559  00000-0 -14281-3 0  9991,2 52105  53.2154 157.3010 0002033  70.7932 289.3280 15.08813184 48663,6917.962,95.439,541.234,538.4209999999999,0.0
52105.0,STARLINK-3706,PAYLOAD,2023-01-25 13:36:05,15.08851011,0.00018,53.2166,152.8401,78.9013,281.2182,0.0002318,3.404e-05,0.0,0 STARLINK-3706,1 52105U 22029T   23025.56673033  .00003404  00000-0  23180-3 0  9991,2 52105  53.2166 152.8401 0001800  78.9013 281.2182 15.08851011 48811,6917.847,95.437,540.957,538.467,0.0
52105.0,STARLINK-3706,PAYLOAD,2023-01-25 15:11:28,15.0885045,0.0001808,53.2165,152.5436,72.9335,287.1855,0.00023164,3.401e-05,0.0,0 STARLINK-3706,1 52105U 22029T   23025.63297088  .00003401  00000-0  23164-3 0  9990,2 52105  53.2165 152.5436 0001808  72.9335 287.1855 15.08850450 48823,6917.848000000001,95.437,540.964,538.4630000000001,0.0
52105.0,STARLINK-3706,PAYLOAD,2023-01-26 08:40:43,15.08835437,0.0001648,53.217,149.2722,70.7848,289.3322,0.00035037,5.292e-05,0.0,0 STARLINK-3706,1 52105U 22029T   23026.36161563  .00005292  00000-0  35037-3 0  9991,2 52105  53.2170 149.2722 0001648  70.7848 289.3322 15.08835437 48930,6917.894,95.438,540.899,538.619,0.0
